GOES 13 [+]             
1 29155U 06018A   17345.98232110 -.00000257  00000-0  00000+0 0  9997
2 29155   0.2255 104.0386 0001479 309.8985 306.0817  1.00273874 42343
